[{"OBJECT_NAME":"KUIPER-00009","OBJECT_ID":"2025-088B","EPOCH":"2026-03-09T07:26:50.434944","MEAN_MOTION":14.79940498,"ECCENTRICITY":0.00078887,"INCLINATION":51.9012,"RA_OF_ASC_NODE":108.316,"ARG_OF_PERICENTER":95.6671,"MEAN_ANOMALY":264.5191,"EPHEMERIS_TYPE":0,"CLASSIFICATION_TYPE":"U","NORAD_CAT_ID":63725,"ELEMENT_SET_NO":999,"REV_AT_EPOCH":4772,"BSTAR":0.00068172788,"MEAN_MOTION_DOT":4.981e-5,"MEAN_MOTION_DDOT":0},{"OBJECT_NAME":"GEESAT-6 08","OBJECT_ID":"2025-214J","EPOCH":"2026-03-09T22:14:05.578944","MEAN_MOTION":14.83021735,"ECCENTRICITY":0.00096397,"INCLINATION":49.9907,"RA_OF_ASC_NODE":48.1729,"ARG_OF_PERICENTER":195.6006,"MEAN_ANOMALY":164.4636,"EPHEMERIS_TYPE":0,"CLASSIFICATION_TYPE":"U","NORAD_CAT_ID":65720,"ELEMENT_SET_NO":999,"REV_AT_EPOCH":2477,"BSTAR":0.00036802718,"MEAN_MOTION_DOT":2.801e-5,"MEAN_MOTION_DDOT":0}]
